start=new Date('2022-09-05T00:00:00.000Z').valueOf();
sats=[{"INCLINATION":"53.0538","EPOCH":"2022-09-04T16:17:35.227680","ECCENTRICITY":"0.00014750","LAUNCH_DATE":"2020-10-24","SITE":"AFETR","PERIOD":"95.401","ARG_OF_PERICENTER":"64.7258","RA_OF_ASC_NODE":"316.7386","MEAN_ANOMALY":"295.3884","TIME_SYSTEM":"UTC","RCS_SIZE":"LARGE","REF_FRAME":"TEME","SEMIMAJOR_AXIS":"6916.116","CLASSIFICATION_TYPE":"U","PERIAPSIS":"536.961","MEAN_ELEMENT_THEORY":"SGP4","MEAN_MOTION_DOT":"0.00172931","MEAN_MOTION":"15.09417466","ELEMENT_SET_NO":"999","EPHEMERIS_TYPE":"0","REV_AT_EPOCH":"10344","TLE_LINE2":"2 46742  53.0538 316.7386 0001475  64.7258 295.3884 15.09417466103446","MEAN_MOTION_DDOT":"0.0000000000000","BSTAR":"0.01045400000000","OBJECT_TYPE":"PAYLOAD","TLE_LINE1":"1 46742U 20074D   22247.67887995  .00172931  00000-0  10454-1 0  9990","OBJECT_NAME":"STARLINK-1872","CENTER_NAME":"EARTH","DECAY_DATE":null,"NORAD_CAT_ID":"46742","OBJECT_ID":"2020-074D","APOAPSIS":"539.001","COUNTRY_CODE":"US","GP_ID":"211749248","FILE":"3558394"},{"PERIOD":"95.592","SITE":"AFETR","LAUNCH_DATE":"2020-10-24","INCLINATION":"53.0554","ECCENTRICITY":"0.00012360","EPOCH":"2022-09-04T15:21:25.127424","TIME_SYSTEM":"UTC","MEAN_ANOMALY":"264.2732","RA_OF_ASC_NODE":"316.9514","ARG_OF_PERICENTER":"95.8398","TLE_LINE2":"2 46743  53.0554 316.9514 0001236  95.8398 264.2732 15.06408968103446","REV_AT_EPOCH":"10344","BSTAR":"0.00007095000000","MEAN_MOTION_DDOT":"0.0000000000000","EPHEMERIS_TYPE":"0","ELEMENT_SET_NO":"999","MEAN_MOTION":"15.06408968","MEAN_MOTION_DOT":"0.00000776","CLASSIFICATION_TYPE":"U","PERIAPSIS":"546.330","MEAN_ELEMENT_THEORY":"SGP4","REF_FRAME":"TEME","SEMIMAJOR_AXIS":"6925.321","RCS_SIZE":"LARGE","GP_ID":"211750003","FILE":"3558394","APOAPSIS":"548.042","COUNTRY_CODE":"US","OBJECT_ID":"2020-074E","NORAD_CAT_ID":"46743","DECAY_DATE":null,"TLE_LINE1":"1 46743U 20074E   22247.63987416  .00000776  00000-0  70950-4 0  9993","OBJECT_NAME":"STARLINK-1892","OBJECT_TYPE":"PAYLOAD","CENTER_NAME":"EARTH"},{"RCS_SIZE":"LARGE","MEAN_ELEMENT_THEORY":"SGP4","PERIAPSIS":"545.945","CLASSIFICATION_TYPE":"U","SEMIMAJOR_AXIS":"6925.274","REF_FRAME":"TEME","ELEMENT_SET_NO":"999","MEAN_MOTION_DOT":"0.00004688","MEAN_MOTION":"15.06424210","BSTAR":"0.00033321000000","MEAN_MOTION_DDOT":"0.0000000000000","TLE_LINE2":"2 46744  53.0544 317.7839 0001725  53.4767 306.6381 15.06424210103414","REV_AT_EPOCH":"10341","EPHEMERIS_TYPE":"0","OBJECT_TYPE":"PAYLOAD","TLE_LINE1":"1 46744U 20074F   22247.45832534  .00004688  00000-0  33321-3 0  9990","CENTER_NAME":"EARTH","OBJECT_NAME":"STARLINK-1894","NORAD_CAT_ID":"46744","DECAY_DATE":null,"COUNTRY_CODE":"US","APOAPSIS":"548.334","OBJECT_ID":"2020-074F","FILE":"3557975","GP_ID":"211717200","ECCENTRICITY":"0.00017250","EPOCH":"2022-09-04T10:59:59.309376","INCLINATION":"53.0544","LAUNCH_DATE":"2020-10-24","PERIOD":"95.591","SITE":"AFETR","ARG_OF_PERICENTER":"53.4767","RA_OF_ASC_NODE":"317.7839","TIME_SYSTEM":"UTC","MEAN_ANOMALY":"306.6381"},{"PERIOD":"92.234","SITE":"AFETR","LAUNCH_DATE":"2020-10-24","INCLINATION":"53.0504","EPOCH":"2022-09-04T11:52:43.461408","ECCENTRICITY":"0.00045760","MEAN_ANOMALY":"84.0954","TIME_SYSTEM":"UTC","RA_OF_ASC_NODE":"240.1139","ARG_OF_PERICENTER":"275.9537","REV_AT_EPOCH":"10449","TLE_LINE2":"2 46745  53.0504 240.1139 0004576 275.9537  84.0954 15.61246718104494","MEAN_MOTION_DDOT":"0.0000000000000","BSTAR":"0.00175150000000","EPHEMERIS_TYPE":"0","ELEMENT_SET_NO":"999","MEAN_MOTION":"15.61246718","MEAN_MOTION_DOT":"0.00153684","CLASSIFICATION_TYPE":"U","PERIAPSIS":"380.962","MEAN_ELEMENT_THEORY":"SGP4","REF_FRAME":"TEME","SEMIMAJOR_AXIS":"6762.192","RCS_SIZE":"LARGE","GP_ID":"211723838","FILE":"3558146","APOAPSIS":"387.151","COUNTRY_CODE":"US","OBJECT_ID":"2020-074G","NORAD_CAT_ID":"46745","DECAY_DATE":null,"OBJECT_TYPE":"PAYLOAD","TLE_LINE1":"1 46745U 20074G   22247.49494747  .00153684  00000-0  17515-2 0  9992","CENTER_NAME":"EARTH","OBJECT_NAME":"STARLINK-1898"},{"ARG_OF_PERICENTER":"56.9871","RA_OF_ASC_NODE":"317.1205","MEAN_ANOMALY":"303.1244","TIME_SYSTEM":"UTC","INCLINATION":"53.0545","ECCENTRICITY":"0.00013110","EPOCH":"2022-09-04T14:33:38.965536","LAUNCH_DATE":"2020-10-24","PERIOD":"95.591","SITE":"AFETR","OBJECT_NAME":"STARLINK-1905","TLE_LINE1":"1 46746U 20074H   22247.60670099  .00003877  00000-0  27894-3 0  9992","OBJECT_TYPE":"PAYLOAD","CENTER_NAME":"EARTH","NORAD_CAT_ID":"46746","DECAY_DATE":null,"APOAPSIS":"548.085","COUNTRY_CODE":"US","OBJECT_ID":"2020-074H","GP_ID":"211749749","FILE":"3558394","RCS_SIZE":"LARGE","CLASSIFICATION_TYPE":"U","PERIAPSIS":"546.269","MEAN_ELEMENT_THEORY":"SGP4","REF_FRAME":"TEME","SEMIMAJOR_AXIS":"6925.312","MEAN_MOTION_DOT":"0.00003877","MEAN_MOTION":"15.06411984","ELEMENT_SET_NO":"999","TLE_LINE2":"2 46746  53.0545 317.1205 0001311  56.9871 303.1244 15.06411984103439","REV_AT_EPOCH":"10343","BSTAR":"0.00027894000000","MEAN_MOTION_DDOT":"0.0000000000000","EPHEMERIS_TYPE":"0"},{"NORAD_CAT_ID":"46747","DECAY_DATE":null,"TLE_LINE1":"1 46747U 20074J   22247.52192436  .00002815  00000-0  20775-3 0  9990","OBJECT_NAME":"STARLINK-1908","OBJECT_TYPE":"PAYLOAD","CENTER_NAME":"EARTH","GP_ID":"211716449","FILE":"3557975","APOAPSIS":"548.122","COUNTRY_CODE":"US","OBJECT_ID":"2020-074J","CLASSIFICATION_TYPE":"U","PERIAPSIS":"546.284","MEAN_ELEMENT_THEORY":"SGP4","REF_FRAME":"TEME","SEMIMAJOR_AXIS":"6925.338","RCS_SIZE":"LARGE","REV_AT_EPOCH":"10342","TLE_LINE2":"2 46747  53.0546 317.5041 0001327  84.6590 275.4550 15.06403298103425","BSTAR":"0.00020775000000","MEAN_MOTION_DDOT":"0.0000000000000","EPHEMERIS_TYPE":"0","ELEMENT_SET_NO":"999","MEAN_MOTION_DOT":"0.00002815","MEAN_MOTION":"15.06403298","ARG_OF_PERICENTER":"84.6590","TIME_SYSTEM":"UTC","MEAN_ANOMALY":"275.4550","RA_OF_ASC_NODE":"317.5041","INCLINATION":"53.0546","EPOCH":"2022-09-04T12:31:34.264704","ECCENTRICITY":"0.00013270","PERIOD":"95.592","SITE":"AFETR","LAUNCH_DATE":"2020-10-24"},{"NORAD_CAT_ID":"46748","DECAY_DATE":null,"TLE_LINE1":"1 46748U 20074K   22247.52929723  .00003770  00000-0  27172-3 0  9997","OBJECT_TYPE":"PAYLOAD","CENTER_NAME":"EARTH","OBJECT_NAME":"STARLINK-1910","FILE":"3558394","GP_ID":"211750016","COUNTRY_CODE":"US","APOAPSIS":"548.060","OBJECT_ID":"2020-074K","MEAN_ELEMENT_THEORY":"SGP4","CLASSIFICATION_TYPE":"U","PERIAPSIS":"546.273","SEMIMAJOR_AXIS":"6925.302","REF_FRAME":"TEME","RCS_SIZE":"LARGE","MEAN_MOTION_DDOT":"0.0000000000000","BSTAR":"0.00027172000000","REV_AT_EPOCH":"10342","TLE_LINE2":"2 46748  53.0542 317.4648 0001290  92.5815 267.5321 15.06415252103422","EPHEMERIS_TYPE":"0","MEAN_MOTION_DOT":"0.00003770","MEAN_MOTION":"15.06415252","ELEMENT_SET_NO":"999","ARG_OF_PERICENTER":"92.5815","TIME_SYSTEM":"UTC","MEAN_ANOMALY":"267.5321","RA_OF_ASC_NODE":"317.4648","ECCENTRICITY":"0.00012900","EPOCH":"2022-09-04T12:42:11.280672","INCLINATION":"53.0542","PERIOD":"95.591","SITE":"AFETR","LAUNCH_DATE":"2020-10-24"},{"TLE_LINE1":"1 46749U 20074L   22247.60300751  .00002136  00000-0  16219-3 0  9996","OBJECT_TYPE":"PAYLOAD","CENTER_NAME":"EARTH","OBJECT_NAME":"STARLINK-1911","NORAD_CAT_ID":"46749","DECAY_DATE":null,"COUNTRY_CODE":"US","APOAPSIS":"548.008","OBJECT_ID":"2020-074L","FILE":"3558394","GP_ID":"211750264","RCS_SIZE":"LARGE","MEAN_ELEMENT_THEORY":"SGP4","PERIAPSIS":"546.353","CLASSIFICATION_TYPE":"U","SEMIMAJOR_AXIS":"6925.316","REF_FRAME":"TEME","ELEMENT_SET_NO":"999","MEAN_MOTION":"15.06410651","MEAN_MOTION_DOT":"0.00002136","MEAN_MOTION_DDOT":"0.0000000000000","BSTAR":"0.00016219000000","TLE_LINE2":"2 46749  53.0551 317.1388 0001195  80.6495 279.4629 15.06410651103439","REV_AT_EPOCH":"10343","EPHEMERIS_TYPE":"0","ARG_OF_PERICENTER":"80.6495","RA_OF_ASC_NODE":"317.1388","MEAN_ANOMALY":"279.4629","TIME_SYSTEM":"UTC","EPOCH":"2022-09-04T14:28:19.848864","ECCENTRICITY":"0.00011950","INCLINATION":"53.0551","LAUNCH_DATE":"2020-10-24","PERIOD":"95.591","SITE":"AFETR"},{"TLE_LINE1":"1 46751U 20074N   22247.46663931 -.00000291  00000-0 -64012-6 0  9994","OBJECT_TYPE":"PAYLOAD","CENTER_NAME":"EARTH","OBJECT_NAME":"STARLINK-1920","DECAY_DATE":null,"NORAD_CAT_ID":"46751","OBJECT_ID":"2020-074N","APOAPSIS":"547.990","COUNTRY_CODE":"US","GP_ID":"211716700","FILE":"3557975","RCS_SIZE":"LARGE","REF_FRAME":"TEME","SEMIMAJOR_AXIS":"6925.344","PERIAPSIS":"546.428","CLASSIFICATION_TYPE":"U","MEAN_ELEMENT_THEORY":"SGP4","MEAN_MOTION":"15.06401526","MEAN_MOTION_DOT":"-0.00000291","ELEMENT_SET_NO":"999","EPHEMERIS_TYPE":"0","REV_AT_EPOCH":"10341","TLE_LINE2":"2 46751  53.0569 317.7551 0001128  94.0423 266.0695 15.06401526103419","MEAN_MOTION_DDOT":"0.0000000000000","BSTAR":"-0.00000064012000","ARG_OF_PERICENTER":"94.0423","RA_OF_ASC_NODE":"317.7551","TIME_SYSTEM":"UTC","MEAN_ANOMALY":"266.0695","INCLINATION":"53.0569","ECCENTRICITY":"0.00011280","EPOCH":"2022-09-04T11:11:57.636384","LAUNCH_DATE":"2020-10-24","SITE":"AFETR","PERIOD":"95.592"},{"TIME_SYSTEM":"UTC","MEAN_ANOMALY":"270.7193","RA_OF_ASC_NODE":"317.6871","ARG_OF_PERICENTER":"89.3943","PERIOD":"95.592","SITE":"AFETR","LAUNCH_DATE":"2020-10-24","ECCENTRICITY":"0.00012830","EPOCH":"2022-09-04T11:27:53.013888","INCLINATION":"53.0572","FILE":"3557975","GP_ID":"211716950","COUNTRY_CODE":"US","APOAPSIS":"548.084","OBJECT_ID":"2020-074P","NORAD_CAT_ID":"46752","DECAY_DATE":null,"TLE_LINE1":"1 46752U 20074P   22247.47769692  .00000349  00000-0  42344-4 0  9991","OBJECT_TYPE":"PAYLOAD","OBJECT_NAME":"STARLINK-1921","CENTER_NAME":"EARTH","MEAN_MOTION_DDOT":"0.0000000000000","BSTAR":"0.00004234400000","TLE_LINE2":"2 46752  53.0572 317.6871 0001283  89.3943 270.7193 15.06405941103414","REV_AT_EPOCH":"10341","EPHEMERIS_TYPE":"0","MEAN_MOTION":"15.06405941","ELEMENT_SET_NO":"999","MEAN_MOTION_DOT":"0.00000349","MEAN_ELEMENT_THEORY":"SGP4","CLASSIFICATION_TYPE":"U","PERIAPSIS":"546.307","SEMIMAJOR_AXIS":"6925.330","REF_FRAME":"TEME","RCS_SIZE":"LARGE"}];
